******** Week   48 almanac for PRN-01 ********
ID:                         01
Health:                     000
Eccentricity:               0.4988193512E-002
Time of Applicability(s):  405504.0000
Orbital Inclination(rad):   0.9616166033
Rate of Right Ascen(r/s):  -0.7691748964E-008
SQRT(A)  (m 1/2):           5153.645996
Right Ascen at Week(rad):   0.2941260230E+001
Argument of Perigee(rad):  -1.715112610
Mean Anom(rad):            -0.1604185875E+001
Af0(s):                     0.1382827759E-003
Af1(s/s):                   0.0000000000E+000
week:                         48

******** Week   48 almanac for PRN-02 ********
ID:                         02
Health:                     000
Eccentricity:               0.2036905289E-001
Time of Applicability(s):  405504.0000
Orbital Inclination(rad):   0.9334716511
Rate of Right Ascen(r/s):  -0.8103194673E-008
SQRT(A)  (m 1/2):           5153.653809
Right Ascen at Week(rad):  -0.1339005688E+001
Argument of Perigee(rad):  -2.104513034
Mean Anom(rad):             0.1814525126E+001
Af0(s):                    -0.2479553223E-003
Af1(s/s):                  -0.3637978807E-011
week:                         48

******** Week   48 almanac for PRN-03 ********
ID:                         03
Health:                     000
Eccentricity:               0.1245975494E-002
Time of Applicability(s):  405504.0000
Orbital Inclination(rad):   0.9407041308
Rate of Right Ascen(r/s):  -0.7966046104E-008
SQRT(A)  (m 1/2):           5153.633301
Right Ascen at Week(rad):  -0.2578162559E+000
Argument of Perigee(rad):   1.001848620
Mean Anom(rad):            -0.4560521886E-001
Af0(s):                     0.2574920654E-004
Af1(s/s):                   0.3637978807E-011
week:                         48

******** Week   48 almanac for PRN-04 ********
ID:                         04
Health:                     000
Eccentricity:               0.5160331726E-002
Time of Applicability(s):  405504.0000
Orbital Inclination(rad):   0.9762793024
Rate of Right Ascen(r/s):  -0.8137481816E-008
SQRT(A)  (m 1/2):           5153.762207
Right Ascen at Week(rad):   0.8476262512E+000
Argument of Perigee(rad):  -0.555049751
Mean Anom(rad):            -0.2214645814E+001
Af0(s):                     0.2660751343E-003
Af1(s/s):                   0.4001776688E-010
week:                         48

******** Week   48 almanac for PRN-05 ********
ID:                         05
Health:                     000
Eccentricity:               0.2101898193E-002
Time of Applicability(s):  405504.0000
Orbital Inclination(rad):   0.9364916757
Rate of Right Ascen(r/s):  -0.8068907531E-008
SQRT(A)  (m 1/2):           5153.590820
Right Ascen at Week(rad):  -0.1319351559E+001
Argument of Perigee(rad):   0.170349016
Mean Anom(rad):            -0.2234260994E+001
Af0(s):                     0.2584457397E-003
Af1(s/s):                   0.0000000000E+000
week:                         48

******** Week   48 almanac for PRN-06 ********
ID:                         06
Health:                     000
Eccentricity:               0.6930351257E-002
Time of Applicability(s):  405504.0000
Orbital Inclination(rad):   0.9482601846
Rate of Right Ascen(r/s):  -0.7908900866E-008
SQRT(A)  (m 1/2):           5153.643555
Right Ascen at Week(rad):  -0.2152104638E+000
Argument of Perigee(rad):  -2.387374822
Mean Anom(rad):            -0.1317497375E+001
Af0(s):                     0.9536743164E-006
Af1(s/s):                   0.0000000000E+000
week:                         48

******** Week   48 almanac for PRN-07 ********
ID:                         07
Health:                     000
Eccentricity:               0.1139831543E-001
Time of Applicability(s):  405504.0000
Orbital Inclination(rad):   0.9500698026
Rate of Right Ascen(r/s):  -0.7863184676E-008
SQRT(A)  (m 1/2):           5153.535156
Right Ascen at Week(rad):  -0.2460702174E+000
Argument of Perigee(rad):  -2.083360128
Mean Anom(rad):             0.6324247756E+000
Af0(s):                     0.1649856567E-003
Af1(s/s):                  -0.1455191523E-010
week:                         48

******** Week   48 almanac for PRN-08 ********
ID:                         08
Health:                     000
Eccentricity:               0.7594585419E-002
Time of Applicability(s):  405504.0000
Orbital Inclination(rad):   0.9579254620
Rate of Right Ascen(r/s):  -0.8000333246E-008
SQRT(A)  (m 1/2):           5153.622559
Right Ascen at Week(rad):  -0.2288095630E+001
Argument of Perigee(rad):   1.888063701
Mean Anom(rad):            -0.9792564835E+000
Af0(s):                     0.3271102905E-003
Af1(s/s):                   0.4365574569E-010
week:                         48

******** Week   48 almanac for PRN-09 ********
ID:                         09
Health:                     000
Eccentricity:               0.1052618027E-001
Time of Applicability(s):  405504.0000
Orbital Inclination(rad):   0.9439578479
Rate of Right Ascen(r/s):  -0.8114623721E-008
SQRT(A)  (m 1/2):           5153.597656
Right Ascen at Week(rad):  -0.2335273404E+001
Argument of Perigee(rad):   0.609128191
Mean Anom(rad):            -0.1492784266E+001
Af0(s):                    -0.9536743164E-006
Af1(s/s):                   0.0000000000E+000
week:                         48

******** Week   48 almanac for PRN-10 ********
ID:                         10
Health:                     000
Eccentricity:               0.4077911377E-002
Time of Applicability(s):  405504.0000
Orbital Inclination(rad):   0.9751887380
Rate of Right Ascen(r/s):  -0.7920329914E-008
SQRT(A)  (m 1/2):           5153.618164
Right Ascen at Week(rad):   0.1871612356E+001
Argument of Perigee(rad):  -0.016976778
Mean Anom(rad):             0.1933230747E+001
Af0(s):                     0.5435943604E-004
Af1(s/s):                   0.0000000000E+000
week:                         48

******** Week   48 almanac for PRN-11 ********
ID:                         11
Health:                     000
Eccentricity:               0.2467155457E-002
Time of Applicability(s):  405504.0000
Orbital Inclination(rad):   0.9245014587
Rate of Right Ascen(r/s):  -0.8606072763E-008
SQRT(A)  (m 1/2):           5153.579590
Right Ascen at Week(rad):   0.7911659461E+000
Argument of Perigee(rad):  -2.963622794
Mean Anom(rad):             0.2079143928E+001
Af0(s):                     0.4997253418E-003
Af1(s/s):                   0.2182787284E-010
week:                         48

******** Week   48 almanac for PRN-13 ********
ID:                         13
Health:                     060
Eccentricity:               0.2732276917E-002
Time of Applicability(s):  405504.0000
Orbital Inclination(rad):   0.9657511608
Rate of Right Ascen(r/s):  -0.7657461821E-008
SQRT(A)  (m 1/2):           5153.704590
Right Ascen at Week(rad):   0.2918651241E+001
Argument of Perigee(rad):  -0.378841573
Mean Anom(rad):             0.1942198692E+001
Af0(s):                    -0.8153915405E-003
Af1(s/s):                  -0.7275957614E-011
week:                         48

******** Week   48 almanac for PRN-15 ********
ID:                         15
Health:                     000
Eccentricity:               0.7761478424E-002
Time of Applicability(s):  405504.0000
Orbital Inclination(rad):   0.9822893912
Rate of Right Ascen(r/s):  -0.8068907531E-008
SQRT(A)  (m 1/2):           5153.157227
Right Ascen at Week(rad):   0.8907297631E+000
Argument of Perigee(rad):   1.542229680
Mean Anom(rad):            -0.1510751240E+001
Af0(s):                     0.8411407471E-003
Af1(s/s):                   0.3637978807E-011
week:                         48

******** Week   48 almanac for PRN-16 ********
ID:                         16
Health:                     000
Eccentricity:               0.5121231079E-002
Time of Applicability(s):  405504.0000
Orbital Inclination(rad):   0.9775496303
Rate of Right Ascen(r/s):  -0.7874613724E-008
SQRT(A)  (m 1/2):           5153.552734
Right Ascen at Week(rad):   0.1923818636E+001
Argument of Perigee(rad):   0.461134998
Mean Anom(rad):             0.3113383661E+001
Af0(s):                    -0.6675720215E-005
Af1(s/s):                   0.7275957614E-011
week:                         48

******** Week   48 almanac for PRN-17 ********
ID:                         17
Health:                     000
Eccentricity:               0.1212310791E-001
Time of Applicability(s):  405504.0000
Orbital Inclination(rad):   0.9839132537
Rate of Right Ascen(r/s):  -0.8057478483E-008
SQRT(A)  (m 1/2):           5153.654785
Right Ascen at Week(rad):   0.9300050642E+000
Argument of Perigee(rad):   2.980632154
Mean Anom(rad):            -0.1630290888E+001
Af0(s):                    -0.2660751343E-003
Af1(s/s):                   0.0000000000E+000
week:                         48

******** Week   48 almanac for PRN-18 ********
ID:                         18
Health:                     060
Eccentricity:               0.7583618164E-002
Time of Applicability(s):  405504.0000
Orbital Inclination(rad):   0.9515019174
Rate of Right Ascen(r/s):  -0.7783181344E-008
SQRT(A)  (m 1/2):           5153.433594
Right Ascen at Week(rad):   0.2871681693E+001
Argument of Perigee(rad):   1.873154951
Mean Anom(rad):             0.6011197331E+000
Af0(s):                     0.0000000000E+000
Af1(s/s):                   0.0000000000E+000
week:                         48

******** Week   48 almanac for PRN-19 ********
ID:                         19
Health:                     000
Eccentricity:               0.5980968475E-002
Time of Applicability(s):  405504.0000
Orbital Inclination(rad):   0.9277791442
Rate of Right Ascen(r/s):  -0.8286059433E-008
SQRT(A)  (m 1/2):           5153.591309
Right Ascen at Week(rad):  -0.2395772767E+001
Argument of Perigee(rad):  -2.616103117
Mean Anom(rad):            -0.1836152907E+001
Af0(s):                     0.2450942993E-003
Af1(s/s):                   0.1091393642E-010
week:                         48

